[{"icaoId":"KLGA","receiptTime":"2026-02-10T20:57:34.979Z","obsTime":1770756660,"reportTime":"2026-02-10T21:00:00.000Z","temp":0.6,"dewp":-8.9,"wdir":140,"wspd":8,"visib":"10+","altim":1015.3,"slp":1015.1,"qcField":4,"presTend":-2.8,"metarType":"METAR","rawOb":"METAR KLGA 102051Z 14008KT 10SM BKN060 BKN120 OVC250 01/M09 A2998 RMK AO2 SLP151 T00061089 56028","lat":40.7794,"lon":-73.8803,"elev":9,"name":"New York/La Guardia Arpt, NY, US","cover":"OVC","clouds":[{"cover":"BKN","base":6000},{"cover":"BKN","base":12000},{"cover":"OVC","base":25000}],"fltCat":"VFR"},{"icaoId":"KLGA","receiptTime":"2026-02-10T19:59:24.328Z","obsTime":1770753060,"reportTime":"2026-02-10T20:00:00.000Z","temp":1.1,"dewp":-10,"wdir":160,"wspd":10,"visib":"10+","altim":1016.3,"slp":1016.2,"qcField":12,"metarType":"METAR","rawOb":"METAR KLGA 101951Z 16010KT 10SM BKN055 OVC100 01/M10 A3001 RMK AO2 SLP162 T00111100 $","lat":40.7794,"lon":-73.8803,"elev":9,"name":"New York/La Guardia Arpt, NY, US","cover":"OVC","clouds":[{"cover":"BKN","base":5500},{"cover":"OVC","base":10000}],"fltCat":"VFR"},{"icaoId":"KLGA","receiptTime":"2026-02-10T18:58:49.810Z","obsTime":1770749460,"reportTime":"2026-02-10T19:00:00.000Z","temp":0,"dewp":-11.7,"wdir":170,"wspd":7,"visib":"10+","altim":1017,"slp":1016.9,"qcField":4,"metarType":"METAR","rawOb":"METAR KLGA 101851Z 17007KT 10SM SCT065 BKN100 BKN250 00/M12 A3003 RMK AO2 SLP169 T00001117","lat":40.7794,"lon":-73.8803,"elev":9,"name":"New York/La Guardia Arpt, NY, US","cover":"BKN","clouds":[{"cover":"SCT","base":6500},{"cover":"BKN","base":10000},{"cover":"BKN","base":25000}],"fltCat":"VFR"},{"icaoId":"KLGA","receiptTime":"2026-02-10T17:58:37.261Z","obsTime":1770745860,"reportTime":"2026-02-10T18:00:00.000Z","temp":0,"dewp":-12.2,"wdir":180,"wspd":6,"visib":"10+","altim":1018,"slp":1018,"qcField":4,"presTend":-3.3,"maxT":0,"minT":-3.3,"snow":6000,"metarType":"METAR","rawOb":"METAR KLGA 101751Z 18006KT 10SM SCT065 BKN100 BKN250 00/M12 A3006 RMK AO2 SLP180 4/006 933009 T00001122 10000 21033 58033","lat":40.7794,"lon":-73.8803,"elev":9,"name":"New York/La Guardia Arpt, NY, US","cover":"BKN","clouds":[{"cover":"SCT","base":6500},{"cover":"BKN","base":10000},{"cover":"BKN","base":25000}],"fltCat":"VFR"},{"icaoId":"KLGA","receiptTime":"2026-02-10T17:48:28.002Z","obsTime":1770742260,"reportTime":"2026-02-10T17:00:00.000Z","temp":-0.6,"dewp":-14.4,"wdir":50,"wspd":5,"visib":"10+","altim":1019.7,"slp":1019.5,"qcField":4,"metarType":"METAR","rawOb":"METAR KLGA 101651Z 05005KT 10SM OVC060 M01/M14 A3011 RMK AO2 SLP195 T10061144","lat":40.7794,"lon":-73.8803,"elev":9,"name":"New York/La Guardia Arpt, NY, US","cover":"OVC","clouds":[{"cover":"OVC","base":6000}],"fltCat":"VFR"},{"icaoId":"KLGA","receiptTime":"2026-02-10T15:58:48.325Z","obsTime":1770738660,"reportTime":"2026-02-10T16:00:00.000Z","temp":-1.7,"dewp":-15.6,"wdir":50,"wspd":5,"visib":"10+","altim":1020.7,"slp":1020.5,"qcField":4,"metarType":"METAR","rawOb":"METAR KLGA 101551Z 05005KT 10SM SCT080 BKN100 BKN250 M02/M16 A3014 RMK AO2 SLP205 T10171156","lat":40.7794,"lon":-73.8803,"elev":9,"name":"New York/La Guardia Arpt, NY, US","cover":"BKN","clouds":[{"cover":"SCT","base":8000},{"cover":"BKN","base":10000},{"cover":"BKN","base":25000}],"fltCat":"VFR"}]